     2              NAVIGATION DATA                         RINEX VERSION / TYPE
CCRINEXN V1.6.0 UX  CDDIS               22-JUN-24 16:26     PGM / RUN BY / DATE 
IGS BROADCAST EPHEMERIS FILE                                COMMENT             
    0.1863D-07  0.2235D-07 -0.1192D-06 -0.5960D-07          ION ALPHA           
    0.1290D+06  0.1638D+06 -0.1966D+06 -0.2621D+06          ION BETA            
    0.279396772385D-08 0.710542735760D-14   147456     2320 DELTA-UTC: A0,A1,T,W
    18                                                      LEAP SECONDS        
                                                            END OF HEADER       
31 24  6 22  3 59 44.0-0.227257609367D-03 0.227373675443D-12 0.000000000000D+00
    0.300000000000D+01 0.262500000000D+01 0.528093425782D-08 0.664728934068D+00
    0.411644577980D-06 0.104814057704D-01 0.506080687046D-05 0.515372735977D+04
    0.532784000000D+06-0.335276126862D-07-0.147639708607D+01 0.109896063805D-06
    0.953724895476D+00 0.277593750000D+03 0.685585716163D+00-0.830391732006D-08
   -0.975040614355D-10 0.100000000000D+01 0.231900000000D+04 0.000000000000D+00
    0.200000000000D+01 0.000000000000D+00-0.135041773319D-07 0.300000000000D+01
    0.525618000000D+06 0.400000000000D+01 0.000000000000D+00 0.000000000000D+00
32 24  6 22  3 59 44.0-0.615418422967D-03 0.136424205266D-11 0.000000000000D+00
    0.400000000000D+01-0.405625000000D+02 0.443161316591D-08-0.114695771130D+01
   -0.190548598766D-05 0.778720946982D-02 0.105276703834D-04 0.515369040871D+04
    0.532784000000D+06 0.763684511185D-07-0.255580857223D+01 0.204890966415D-06
    0.962318238657D+00 0.176906250000D+03-0.212979920429D+01-0.768639159763D-08
    0.704672209569D-09 0.100000000000D+01 0.231900000000D+04 0.000000000000D+00
    0.200000000000D+01 0.000000000000D+00 0.931322574616D-09 0.400000000000D+01
    0.525618000000D+06 0.400000000000D+01 0.000000000000D+00 0.000000000000D+00
 1 24  6 22  4  0  0.0 0.255650375038D-03-0.636646291241D-11 0.000000000000D+00
    0.860000000000D+02 0.273125000000D+02 0.595774816413D-08-0.428915482509D+00
    0.145658850670D-05 0.133745038183D-01 0.944361090660D-05 0.515377094078D+04
    0.532800000000D+06-0.800937414169D-07-0.434851338447D+00 0.122934579849D-06
    0.954427100543D+00 0.192187500000D+03 0.103029676194D+01-0.808247952486D-08
   -0.808605110220D-09 0.100000000000D+01 0.231900000000D+04 0.000000000000D+00
    0.280000000000D+01 0.630000000000D+02-0.195577740669D-07 0.860000000000D+02
    0.527628000000D+06 0.400000000000D+01 0.000000000000D+00 0.000000000000D+00
 2 24  6 22  4  0  0.0-0.413207802921D-03 0.716227077646D-11 0.000000000000D+00
    0.290000000000D+02 0.453437500000D+02 0.445268547222D-08-0.164882775394D+01
    0.278651714325D-05 0.159875929821D-01-0.428408384323D-06 0.515369745445D+04
    0.532800000000D+06-0.258907675743D-06 0.155902971388D+01 0.350177288055D-06
    0.967052775527D+00 0.395750000000D+03-0.117189435833D+01-0.844928051788D-08
    0.186079179516D-09 0.100000000000D+01 0.231900000000D+04 0.000000000000D+00
    0.200000000000D+01 0.000000000000D+00-0.176951289177D-07 0.290000000000D+02
    0.525618000000D+06 0.400000000000D+01 0.000000000000D+00 0.000000000000D+00
 3 24  6 22  4  0  0.0 0.424778554589D-03 0.176214598468D-10 0.000000000000D+00
    0.890000000000D+02-0.144625000000D+03 0.377658588139D-08 0.108950591788D+01
   -0.766851007938D-05 0.561731727794D-02 0.621005892754D-05 0.515371221924D+04
    0.532800000000D+06-0.521540641785D-07 0.269455034480D+01 0.372529029846D-08
    0.985056388993D+00 0.271281250000D+03 0.110650584666D+01-0.780853954273D-08
   -0.828605943335D-10 0.100000000000D+01 0.231900000000D+04 0.000000000000D+00
    0.200000000000D+01 0.000000000000D+00 0.139698386192D-08 0.890000000000D+02
    0.525618000000D+06 0.400000000000D+01 0.000000000000D+00 0.000000000000D+00
 4 24  6 22  4  0  0.0 0.388307496905D-03 0.807176547823D-11 0.000000000000D+00
    0.148000000000D+03-0.372500000000D+02 0.437482508617D-08-0.220017062998D+01
   -0.207871198654D-05 0.286857236642D-02 0.101625919342D-04 0.515373462677D+04
    0.532800000000D+06 0.428408384323D-07-0.251082158548D+01-0.856816768646D-07
    0.965263929540D+00 0.189937500000D+03-0.295507653647D+01-0.765531887476D-08
    0.665384858807D-09 0.100000000000D+01 0.231900000000D+04 0.000000000000D+00
    0.200000000000D+01 0.000000000000D+00-0.465661287308D-08 0.148000000000D+03
    0.525618000000D+06 0.400000000000D+01 0.000000000000D+00 0.000000000000D+00
 5 24  6 22  4  0  0.0-0.177167356014D-03-0.136424205266D-11 0.000000000000D+00
    0.370000000000D+02-0.141218750000D+03 0.405695470273D-08-0.150570363618D+01
   -0.707991421223D-05 0.592288305052D-02 0.605918467045D-05 0.515363411903D+04
    0.532800000000D+06 0.651925802231D-07 0.264288348392D+01 0.100582838059D-06
    0.971970310282D+00 0.262000000000D+03 0.127112655813D+01-0.786389899153D-08
   -0.346443002170D-10 0.100000000000D+01 0.231900000000D+04 0.000000000000D+00
    0.200000000000D+01 0.000000000000D+00-0.107102096081D-07 0.370000000000D+02
    0.525618000000D+06 0.400000000000D+01 0.000000000000D+00 0.000000000000D+00
 8 24  6 22  4  0  0.0 0.241088680923D-03 0.176214598468D-10 0.000000000000D+00
    0.730000000000D+02 0.156718750000D+03 0.419803200774D-08-0.186232486565D+01
    0.810064375401D-05 0.947413081303D-02 0.829808413982D-05 0.515365494347D+04
    0.532800000000D+06-0.502914190292D-07 0.561169563033D+00-0.949949026108D-07
    0.953119127432D+00 0.217593750000D+03 0.364828836265D+00-0.779318176016D-08
    0.907180644858D-10 0.100000000000D+01 0.231900000000D+04 0.000000000000D+00
    0.200000000000D+01 0.000000000000D+00 0.465661287308D-08 0.730000000000D+02
    0.530946000000D+06 0.400000000000D+01 0.000000000000D+00 0.000000000000D+00
 9 24  6 22  4  0  0.0 0.244069844484D-03 0.146656020661D-10 0.000000000000D+00
    0.102000000000D+03-0.371250000000D+02 0.449947313540D-08-0.139057303079D+01
   -0.188127160072D-05 0.277365313377D-02 0.103600323200D-04 0.515364747238D+04
    0.532800000000D+06-0.260770320892D-07-0.257052579729D+01-0.372529029846D-08
    0.958925267886D+00 0.184781250000D+03 0.197779102641D+01-0.775353725166D-08
    0.633240662730D-09 0.100000000000D+01 0.231900000000D+04 0.000000000000D+00
    0.200000000000D+01 0.000000000000D+00 0.931322574616D-09 0.102000000000D+03
    0.530118000000D+06 0.400000000000D+01 0.000000000000D+00 0.000000000000D+00
10 24  6 22  4  0  0.0-0.482602044940D-04-0.864019966684D-11 0.000000000000D+00
    0.670000000000D+02-0.158937500000D+03 0.379730102997D-08 0.114030223279D+00
   -0.826641917229D-05 0.938283349387D-02 0.661425292492D-05 0.515369404221D+04
    0.532800000000D+06 0.279396772385D-07 0.269198726990D+01 0.176951289177D-06
    0.984712825607D+00 0.267468750000D+03-0.237514923740D+01-0.788389982464D-08
   -0.542879755978D-10 0.100000000000D+01 0.231900000000D+04 0.000000000000D+00
    0.200000000000D+01 0.000000000000D+00 0.232830643654D-08 0.670000000000D+02
    0.525618000000D+06 0.400000000000D+01 0.000000000000D+00 0.000000000000D+00
11 24  6 22  4  0  0.0-0.690471846610D-03-0.784439180279D-11 0.000000000000D+00
    0.720000000000D+02 0.271875000000D+01 0.435625288399D-08-0.254690043834D+01
    0.227242708206D-06 0.137070973869D-02-0.640749931335D-06 0.515372757340D+04
    0.532800000000D+06-0.111758708954D-07 0.169046818832D+01 0.130385160446D-07
    0.965991590844D+00 0.394437500000D+03-0.260647385796D+01-0.827963059413D-08
    0.996470078407D-10 0.100000000000D+01 0.231900000000D+04 0.000000000000D+00
    0.200000000000D+01 0.000000000000D+00-0.884756445885D-08 0.584000000000D+03
    0.525618000000D+06 0.400000000000D+01 0.000000000000D+00 0.000000000000D+00
12 24  6 22  4  0  0.0-0.516124535352D-03-0.318323145621D-11 0.000000000000D+00
    0.660000000000D+02 0.287187500000D+02 0.436018161907D-08 0.836886170845D+00
    0.140629708767D-05 0.870742357802D-02 0.100359320641D-04 0.515363581085D+04
    0.532800000000D+06-0.115483999252D-06-0.382141962638D+00-0.279396772385D-07
    0.962433447845D+00 0.189875000000D+03 0.145328099085D+01-0.782246869436D-08
   -0.742173771659D-09 0.100000000000D+01 0.231900000000D+04 0.000000000000D+00
    0.200000000000D+01 0.000000000000D+00-0.125728547573D-07 0.660000000000D+02
    0.530058000000D+06 0.400000000000D+01 0.000000000000D+00 0.000000000000D+00
13 24  6 22  4  0  0.0 0.659589190036D-03 0.261479726760D-11 0.000000000000D+00
    0.170000000000D+02-0.152500000000D+02 0.430232206613D-08-0.213639488602D+01
   -0.959262251854D-06 0.817367876880D-02 0.957585871220D-05 0.515365415001D+04
    0.532800000000D+06 0.763684511185D-07-0.240427359130D+01-0.745058059692D-07
    0.971680712482D+00 0.198031250000D+03 0.927630261009D+00-0.753495671833D-08
    0.770746390395D-09 0.100000000000D+01 0.231900000000D+04 0.000000000000D+00
    0.200000000000D+01 0.000000000000D+00-0.111758708954D-07 0.170000000000D+02
    0.525618000000D+06 0.400000000000D+01 0.000000000000D+00 0.000000000000D+00
14 24  6 22  4  0  0.0 0.431197695434D-03 0.909494701773D-11 0.000000000000D+00
    0.211000000000D+03 0.142187500000D+02 0.484055877156D-08 0.791333216193D+00
    0.871717929840D-06 0.461707729846D-02 0.929832458496D-05 0.515369872665D+04
    0.532800000000D+06 0.558793544769D-08-0.426957237923D+00 0.800937414169D-07
    0.945721803166D+00 0.189031250000D+03-0.288630335901D+01-0.800711924294D-08
   -0.794318800852D-09 0.100000000000D+01 0.231900000000D+04 0.000000000000D+00
    0.200000000000D+01 0.000000000000D+00-0.791624188423D-08 0.723000000000D+03
    0.526278000000D+06 0.400000000000D+01 0.000000000000D+00 0.000000000000D+00
